start=new Date('2022-06-24T00:00:00.000Z').valueOf();
sats=[{"OBJECT_NAME":"STARLINK-2713","TLE_LINE1":"1 48602U 21041BB  22174.45785994  .00001403  00000-0  11307-3 0  9998","DECAY_DATE":null,"TLE_LINE2":"2 48602  53.0574  80.4969 0001834  65.2283 294.8897 15.06400356 62414","ELEMENT_SET_NO":"999","EPHEMERIS_TYPE":"0","CENTER_NAME":"EARTH","LAUNCH_DATE":"2021-05-15","MEAN_MOTION":"15.06400356","SITE":"AFETR","GP_ID":"206693329","ARG_OF_PERICENTER":"65.2283","OBJECT_ID":"2021-041BB","MEAN_MOTION_DOT":"0.00001403","RA_OF_ASC_NODE":"80.4969","INCLINATION":"53.0574","PERIOD":"95.592","RCS_SIZE":"LARGE","EPOCH":"2022-06-23T10:59:19.098816","MEAN_ELEMENT_THEORY":"SGP4","COUNTRY_CODE":"US","CLASSIFICATION_TYPE":"U","BSTAR":"0.00011307000000","REV_AT_EPOCH":"6241","FILE":"3500746","MEAN_ANOMALY":"294.8897","OBJECT_TYPE":"PAYLOAD","MEAN_MOTION_DDOT":"0.0000000000000","PERIAPSIS":"545.942","APOAPSIS":"548.483","REF_FRAME":"TEME","SEMIMAJOR_AXIS":"6925.347","NORAD_CAT_ID":"48602","ECCENTRICITY":"0.00018340","TIME_SYSTEM":"UTC"},{"TIME_SYSTEM":"UTC","REF_FRAME":"TEME","SEMIMAJOR_AXIS":"6925.378","NORAD_CAT_ID":"48603","ECCENTRICITY":"0.00014330","BSTAR":"-0.00002766400000","REV_AT_EPOCH":"6248","FILE":"3500746","COUNTRY_CODE":"US","CLASSIFICATION_TYPE":"U","PERIAPSIS":"546.251","MEAN_MOTION_DDOT":"0.0000000000000","APOAPSIS":"548.236","OBJECT_TYPE":"PAYLOAD","MEAN_ANOMALY":"301.4729","MEAN_MOTION_DOT":"-0.00000693","RCS_SIZE":"LARGE","EPOCH":"2022-06-23T10:29:26.583072","MEAN_ELEMENT_THEORY":"SGP4","RA_OF_ASC_NODE":"75.5766","INCLINATION":"53.0557","PERIOD":"95.593","TLE_LINE2":"2 48603  53.0557  75.5766 0001433  58.6400 301.4729 15.06390335 62489","OBJECT_NAME":"STARLINK-2714","TLE_LINE1":"1 48603U 21041BC  22174.43711323 -.00000693  00000-0 -27664-4 0  9998","DECAY_DATE":null,"MEAN_MOTION":"15.06390335","SITE":"AFETR","OBJECT_ID":"2021-041BC","GP_ID":"206693330","ARG_OF_PERICENTER":"58.6400","ELEMENT_SET_NO":"999","CENTER_NAME":"EARTH","EPHEMERIS_TYPE":"0","LAUNCH_DATE":"2021-05-15"},{"TIME_SYSTEM":"UTC","REF_FRAME":"TEME","SEMIMAJOR_AXIS":"6925.326","ECCENTRICITY":"0.00017940","NORAD_CAT_ID":"48604","MEAN_MOTION_DDOT":"0.0000000000000","PERIAPSIS":"545.948","APOAPSIS":"548.433","OBJECT_TYPE":"PAYLOAD","MEAN_ANOMALY":"296.7175","BSTAR":"-0.00008692800000","REV_AT_EPOCH":"6207","FILE":"3500539","COUNTRY_CODE":"US","CLASSIFICATION_TYPE":"U","RCS_SIZE":"LARGE","EPOCH":"2022-06-23T12:07:39.178848","MEAN_ELEMENT_THEORY":"SGP4","RA_OF_ASC_NODE":"105.2872","INCLINATION":"53.0551","PERIOD":"95.592","MEAN_MOTION_DOT":"-0.00001576","SITE":"AFETR","MEAN_MOTION":"15.06407504","OBJECT_ID":"2021-041BD","GP_ID":"206685520","ARG_OF_PERICENTER":"63.3998","ELEMENT_SET_NO":"999","CENTER_NAME":"EARTH","EPHEMERIS_TYPE":"0","LAUNCH_DATE":"2021-05-15","TLE_LINE2":"2 48604  53.0551 105.2872 0001794  63.3998 296.7175 15.06407504 62071","OBJECT_NAME":"STARLINK-2757","TLE_LINE1":"1 48604U 21041BD  22174.50531457 -.00001576  00000-0 -86928-4 0  9994","DECAY_DATE":null},{"DECAY_DATE":null,"OBJECT_NAME":"STARLINK-2758","TLE_LINE1":"1 48638U 21044A   22174.45692949  .00000465  00000-0  50113-4 0  9993","TLE_LINE2":"2 48638  53.0553  80.5044 0001766  76.2492 283.8694 15.06387141 59519","LAUNCH_DATE":"2021-05-26","ELEMENT_SET_NO":"999","EPHEMERIS_TYPE":"0","CENTER_NAME":"EARTH","ARG_OF_PERICENTER":"76.2492","GP_ID":"206684524","OBJECT_ID":"2021-044A","SITE":"AFETR","MEAN_MOTION":"15.06387141","MEAN_MOTION_DOT":"0.00000465","INCLINATION":"53.0553","PERIOD":"95.593","RA_OF_ASC_NODE":"80.5044","MEAN_ELEMENT_THEORY":"SGP4","RCS_SIZE":"LARGE","EPOCH":"2022-06-23T10:57:58.707936","CLASSIFICATION_TYPE":"U","COUNTRY_CODE":"US","FILE":"3500539","BSTAR":"0.00005011300000","REV_AT_EPOCH":"5951","MEAN_ANOMALY":"283.8694","OBJECT_TYPE":"PAYLOAD","PERIAPSIS":"546.030","MEAN_MOTION_DDOT":"0.0000000000000","APOAPSIS":"548.476","NORAD_CAT_ID":"48638","ECCENTRICITY":"0.00017660","SEMIMAJOR_AXIS":"6925.388","REF_FRAME":"TEME","TIME_SYSTEM":"UTC"},{"RCS_SIZE":"LARGE","EPOCH":"2022-06-23T13:47:48.848352","MEAN_ELEMENT_THEORY":"SGP4","RA_OF_ASC_NODE":"79.9760","PERIOD":"95.593","INCLINATION":"53.0557","MEAN_MOTION_DOT":"-0.00000390","SITE":"AFETR","MEAN_MOTION":"15.06394238","GP_ID":"206693527","ARG_OF_PERICENTER":"58.1412","OBJECT_ID":"2021-044B","EPHEMERIS_TYPE":"0","CENTER_NAME":"EARTH","ELEMENT_SET_NO":"999","LAUNCH_DATE":"2021-05-26","TLE_LINE2":"2 48639  53.0557  79.9760 0001503  58.1412 301.9723 15.06394238 60434","TLE_LINE1":"1 48639U 21044B   22174.57487093 -.00000390  00000-0 -73001-5 0  9990","OBJECT_NAME":"STARLINK-2739","DECAY_DATE":null,"TIME_SYSTEM":"UTC","REF_FRAME":"TEME","SEMIMAJOR_AXIS":"6925.366","ECCENTRICITY":"0.00015030","NORAD_CAT_ID":"48639","APOAPSIS":"548.272","MEAN_MOTION_DDOT":"0.0000000000000","PERIAPSIS":"546.190","MEAN_ANOMALY":"301.9723","OBJECT_TYPE":"PAYLOAD","REV_AT_EPOCH":"6043","BSTAR":"-0.00000730010000","FILE":"3500758","COUNTRY_CODE":"US","CLASSIFICATION_TYPE":"U"},{"PERIAPSIS":"546.043","MEAN_MOTION_DDOT":"0.0000000000000","APOAPSIS":"548.438","MEAN_ANOMALY":"301.4480","OBJECT_TYPE":"PAYLOAD","BSTAR":"-0.00001846600000","REV_AT_EPOCH":"6034","FILE":"3500644","COUNTRY_CODE":"US","CLASSIFICATION_TYPE":"U","TIME_SYSTEM":"UTC","REF_FRAME":"TEME","SEMIMAJOR_AXIS":"6925.376","NORAD_CAT_ID":"48640","ECCENTRICITY":"0.00017290","SITE":"AFETR","MEAN_MOTION":"15.06391170","GP_ID":"206690349","ARG_OF_PERICENTER":"58.6679","OBJECT_ID":"2021-044C","ELEMENT_SET_NO":"999","EPHEMERIS_TYPE":"0","CENTER_NAME":"EARTH","LAUNCH_DATE":"2021-05-26","TLE_LINE2":"2 48640  53.0559  80.8729 0001729  58.6679 301.4480 15.06391170 60341","OBJECT_NAME":"STARLINK-2736","TLE_LINE1":"1 48640U 21044C   22174.43578712 -.00000557  00000-0 -18466-4 0  9994","DECAY_DATE":null,"RCS_SIZE":"LARGE","EPOCH":"2022-06-23T10:27:32.007168","MEAN_ELEMENT_THEORY":"SGP4","RA_OF_ASC_NODE":"80.8729","INCLINATION":"53.0559","PERIOD":"95.593","MEAN_MOTION_DOT":"-0.00000557"},{"TIME_SYSTEM":"UTC","SEMIMAJOR_AXIS":"6925.373","REF_FRAME":"TEME","NORAD_CAT_ID":"48641","ECCENTRICITY":"0.00015110","PERIAPSIS":"546.192","MEAN_MOTION_DDOT":"0.0000000000000","APOAPSIS":"548.285","OBJECT_TYPE":"PAYLOAD","MEAN_ANOMALY":"301.5750","BSTAR":"0.00003606000000","REV_AT_EPOCH":"6034","FILE":"3500705","COUNTRY_CODE":"US","CLASSIFICATION_TYPE":"U","EPOCH":"2022-06-23T10:45:23.705856","RCS_SIZE":"LARGE","MEAN_ELEMENT_THEORY":"SGP4","RA_OF_ASC_NODE":"85.5399","INCLINATION":"53.0549","PERIOD":"95.593","MEAN_MOTION_DOT":"0.00000256","MEAN_MOTION":"15.06391903","SITE":"AFETR","OBJECT_ID":"2021-044D","GP_ID":"206691841","ARG_OF_PERICENTER":"58.5387","ELEMENT_SET_NO":"999","EPHEMERIS_TYPE":"0","CENTER_NAME":"EARTH","LAUNCH_DATE":"2021-05-26","TLE_LINE2":"2 48641  53.0549  85.5399 0001511  58.5387 301.5750 15.06391903 60345","OBJECT_NAME":"STARLINK-2754","TLE_LINE1":"1 48641U 21044D   22174.44819104  .00000256  00000-0  36060-4 0  9993","DECAY_DATE":null},{"ECCENTRICITY":"0.00016210","NORAD_CAT_ID":"48642","REF_FRAME":"TEME","SEMIMAJOR_AXIS":"6925.362","TIME_SYSTEM":"UTC","MEAN_ANOMALY":"290.8416","OBJECT_TYPE":"PAYLOAD","APOAPSIS":"548.350","PERIAPSIS":"546.104","MEAN_MOTION_DDOT":"0.0000000000000","CLASSIFICATION_TYPE":"U","COUNTRY_CODE":"US","FILE":"3500585","REV_AT_EPOCH":"6028","BSTAR":"0.00017938000000","PERIOD":"95.592","INCLINATION":"53.0543","RA_OF_ASC_NODE":"85.4733","MEAN_ELEMENT_THEORY":"SGP4","RCS_SIZE":"LARGE","EPOCH":"2022-06-23T11:05:16.040544","MEAN_MOTION_DOT":"0.00002391","LAUNCH_DATE":"2021-05-26","EPHEMERIS_TYPE":"0","CENTER_NAME":"EARTH","ELEMENT_SET_NO":"999","GP_ID":"206689538","ARG_OF_PERICENTER":"69.2747","OBJECT_ID":"2021-044E","MEAN_MOTION":"15.06395601","SITE":"AFETR","DECAY_DATE":null,"TLE_LINE1":"1 48642U 21044E   22174.46199121  .00002391  00000-0  17938-3 0  9990","OBJECT_NAME":"STARLINK-2646","TLE_LINE2":"2 48642  53.0543  85.4733 0001621  69.2747 290.8416 15.06395601 60283"},{"TIME_SYSTEM":"UTC","REF_FRAME":"TEME","SEMIMAJOR_AXIS":"6925.352","ECCENTRICITY":"0.00013700","NORAD_CAT_ID":"48643","MEAN_MOTION_DDOT":"0.0000000000000","PERIAPSIS":"546.268","APOAPSIS":"548.165","MEAN_ANOMALY":"290.0520","OBJECT_TYPE":"PAYLOAD","BSTAR":"0.00008120700000","REV_AT_EPOCH":"6034","FILE":"3500705","COUNTRY_CODE":"US","CLASSIFICATION_TYPE":"U","EPOCH":"2022-06-23T10:38:42.696672","RCS_SIZE":"LARGE","MEAN_ELEMENT_THEORY":"SGP4","RA_OF_ASC_NODE":"85.5483","INCLINATION":"53.0568","PERIOD":"95.592","MEAN_MOTION_DOT":"0.00000928","MEAN_MOTION":"15.06398967","SITE":"AFETR","GP_ID":"206691843","ARG_OF_PERICENTER":"70.0616","OBJECT_ID":"2021-044F","ELEMENT_SET_NO":"999","EPHEMERIS_TYPE":"0","CENTER_NAME":"EARTH","LAUNCH_DATE":"2021-05-26","TLE_LINE2":"2 48643  53.0568  85.5483 0001370  70.0616 290.0520 15.06398967 60343","OBJECT_NAME":"STARLINK-2704","TLE_LINE1":"1 48643U 21044F   22174.44354973  .00000928  00000-0  81207-4 0  9992","DECAY_DATE":null},{"TIME_SYSTEM":"UTC","REF_FRAME":"TEME","SEMIMAJOR_AXIS":"6925.360","NORAD_CAT_ID":"48644","ECCENTRICITY":"0.00018250","PERIAPSIS":"545.961","MEAN_MOTION_DDOT":"0.0000000000000","APOAPSIS":"548.489","MEAN_ANOMALY":"291.7903","OBJECT_TYPE":"PAYLOAD","BSTAR":"0.00009095300000","REV_AT_EPOCH":"5938","FILE":"3500539","COUNTRY_CODE":"US","CLASSIFICATION_TYPE":"U","EPOCH":"2022-06-23T01:01:32.136384","RCS_SIZE":"LARGE","MEAN_ELEMENT_THEORY":"SGP4","RA_OF_ASC_NODE":"87.3651","INCLINATION":"53.0554","PERIOD":"95.592","MEAN_MOTION_DOT":"0.00001073","MEAN_MOTION":"15.06396338","SITE":"AFETR","ARG_OF_PERICENTER":"68.3280","GP_ID":"206685525","OBJECT_ID":"2021-044G","ELEMENT_SET_NO":"999","EPHEMERIS_TYPE":"0","CENTER_NAME":"EARTH","LAUNCH_DATE":"2021-05-26","TLE_LINE2":"2 48644  53.0554  87.3651 0001825  68.3280 291.7903 15.06396338 59383","OBJECT_NAME":"STARLINK-2695","TLE_LINE1":"1 48644U 21044G   22174.04273306  .00001073  00000-0  90953-4 0  9999","DECAY_DATE":null}];
